{"type": "FeatureCollection", "features": [ {"type": "Feature", "properties": {"norad_id": 32289, "name": "YAOGAN-3", "group": "resource", "lat": 35.42163003154977, "lon": 15.414493857663471, "alt_km": 595.269801995707, "timestamp": "2025-12-20T11:30:28.027694+00:00", "meta": {"OBJECT_NAME": "YAOGAN-3", "OBJECT_ID": "2007-055A", "EPOCH": "2025-12-20T04:54:00.797760", "MEAN_MOTION": 14.89890157, "ECCENTRICITY": 0.0001159, "INCLINATION": 97.8357, "RA_OF_ASC_NODE": 20.7625, "ARG_OF_PERICENTER": 73.4713, "MEAN_ANOMALY": 286.6632, "EPHEMERIS_TYPE": 0, "CLASSIFICATION_TYPE": "U", "NORAD_CAT_ID": 32289, "ELEMENT_SET_NO": 999, "REV_AT_EPOCH": 97920, "BSTAR": 0.00014003, "MEAN_MOTION_DOT": 1.291e-05, "MEAN_MOTION_DDOT": 0}, "tle": {"line1": "1 32289U 07055A   25354.20417590  .00001291  00000+0  14003-3 0  9991", "line2": "2 32289  97.8357  20.7625 0001159  73.4713 286.6632 14.89890157979200"}}, "geometry": {"type": "Point", "coordinates": [15.414493857663471, 35.42163003154977]}}, {"type": "Feature", "properties": {"norad_id": 32376, "name": "COSMO-SKYMED 2", "group": "resource", "lat": 77.21700783855721, "lon": 33.31053558918565, "alt_km": 614.3834215090947, "timestamp": "2025-12-20T11:30:28.027706+00:00", "meta": {"OBJECT_NAME": "COSMO-SKYMED 2", "OBJECT_ID": "2007-059A", "EPOCH": "2025-12-20T04:34:37.163424", "MEAN_MOTION": 14.82150985, "ECCENTRICITY": 0.0001353, "INCLINATION": 97.8804, "RA_OF_ASC_NODE": 175.4023, "ARG_OF_PERICENTER": 82.8974, "MEAN_ANOMALY": 277.2393, "EPHEMERIS_TYPE": 0, "CLASSIFICATION_TYPE": "U", "NORAD_CAT_ID": 32376, "ELEMENT_SET_NO": 999, "REV_AT_EPOCH": 97548, "BSTAR": 5.1195e-05, "MEAN_MOTION_DOT": 3.55e-06, "MEAN_MOTION_DDOT": 0}, "tle": {"line1": "1 32376U 07059A   25354.19070791  .00000355  00000+0  51195-4 0  9992", "line2": "2 32376  97.8804 175.4023 0001353  82.8974 277.2393 14.82150985975480"}}, "geometry": {"type": "Point", "coordinates": [33.31053558918565, 77.21700783855721]}}, {"type": "Feature", "properties": {"norad_id": 32382, "name": "RADARSAT-2", "group": "resource", "lat": 37.24324989668867, "lon": -7.632553650291126, "alt_km": 788.497170770378, "timestamp": "2025-12-20T11:30:28.027717+00:00", "meta": {"OBJECT_NAME": "RADARSAT-2", "OBJECT_ID": "2007-061A", "EPOCH": "2025-12-20T04:36:52.960896", "MEAN_MOTION": 14.29984373, "ECCENTRICITY": 0.0001135, "INCLINATION": 98.579, "RA_OF_ASC_NODE": 358.6744, "ARG_OF_PERICENTER": 84.4996, "MEAN_ANOMALY": 275.6316, "EPHEMERIS_TYPE": 0, "CLASSIFICATION_TYPE": "U", "NORAD_CAT_ID": 32382, "ELEMENT_SET_NO": 999, "REV_AT_EPOCH": 94037, "BSTAR": 0.00010377, "MEAN_MOTION_DOT": 2.24e-06, "MEAN_MOTION_DDOT": 0}, "tle": {"line1": "1 32382U 07061A   25354.19227964  .00000224  00000+0  10377-3 0  9999", "line2": "2 32382  98.5790 358.6744 0001135  84.4996 275.6316 14.29984373940378"}}, "geometry": {"type": "Point", "coordinates": [-7.632553650291126, 37.24324989668867]}}, {"type": "Feature", "properties": {"norad_id": 32783, "name": "CARTOSAT-2A", "group": "resource", "lat": 29.13505419991367, "lon": -131.56075413625598, "alt_km": 639.0670398553593, "timestamp": "2025-12-20T11:30:28.027728+00:00", "meta": {"OBJECT_NAME": "CARTOSAT-2A", "OBJECT_ID": "2008-021A", "EPOCH": "2025-12-20T04:20:04.219296", "MEAN_MOTION": 14.78950753, "ECCENTRICITY": 0.0011251, "INCLINATION": 97.7924, "RA_OF_ASC_NODE": 43.7721, "ARG_OF_PERICENTER": 340.392, "MEAN_ANOMALY": 19.6857, "EPHEMERIS_TYPE": 0, "CLASSIFICATION_TYPE": "U", "NORAD_CAT_ID": 32783, "ELEMENT_SET_NO": 999, "REV_AT_EPOCH": 95234, "BSTAR": 0.00013169, "MEAN_MOTION_DOT": 9.22e-06, "MEAN_MOTION_DDOT": 0}, "tle": {"line1": "1 32783U 08021A   25354.18060439  .00000922  00000+0  13169-3 0  9999", "line2": "2 32783  97.7924  43.7721 0011251 340.3920  19.6857 14.78950753952346"}}, "geometry": {"type": "Point", "coordinates": [-131.56075413625598, 29.13505419991367]}}, {"type": "Feature", "properties": {"norad_id": 33320, "name": "HUANJING 1A (HJ-1A)", "group": "resource", "lat": 39.41819056226181, "lon": 168.80048357947777, "alt_km": 624.4467529373233, "timestamp": "2025-12-20T11:30:28.027738+00:00", "meta": {"OBJECT_NAME": "HUANJING 1A (HJ-1A)", "OBJECT_ID": "2008-041A", "EPOCH": "2025-12-20T04:24:13.974912", "MEAN_MOTION": 14.8341547, "ECCENTRICITY": 0.0019642, "INCLINATION": 97.6535, "RA_OF_ASC_NODE": 342.1712, "ARG_OF_PERICENTER": 10.7747, "MEAN_ANOMALY": 349.3884, "EPHEMERIS_TYPE": 0, "CLASSIFICATION_TYPE": "U", "NORAD_CAT_ID": 33320, "ELEMENT_SET_NO": 999, "REV_AT_EPOCH": 93186, "BSTAR": 0.00014007, "MEAN_MOTION_DOT": 1.102e-05, "MEAN_MOTION_DDOT": 0}, "tle": {"line1": "1 33320U 08041A   25354.18349508  .00001102  00000+0  14007-3 0  9999", "line2": "2 33320  97.6535 342.1712 0019642  10.7747 349.3884 14.83415470931869"}}, "geometry": {"type": "Point", "coordinates": [168.80048357947777, 39.41819056226181]}}, {"type": "Feature", "properties": {"norad_id": 33321, "name": "HUANJING 1B (HJ-1B)", "group": "resource", "lat": -15.389492448066182, "lon": -11.751102673661315, "alt_km": 614.565119234293, "timestamp": "2025-12-20T11:30:28.027749+00:00", "meta": {"OBJECT_NAME": "HUANJING 1B (HJ-1B)", "OBJECT_ID": "2008-041B", "EPOCH": "2025-12-20T05:05:57.708672", "MEAN_MOTION": 14.82840621, "ECCENTRICITY": 0.0037997, "INCLINATION": 97.6395, "RA_OF_ASC_NODE": 345.8765, "ARG_OF_PERICENTER": 52.1734, "MEAN_ANOMALY": 308.291, "EPHEMERIS_TYPE": 0, "CLASSIFICATION_TYPE": "U", "NORAD_CAT_ID": 33321, "ELEMENT_SET_NO": 999, "REV_AT_EPOCH": 93188, "BSTAR": 0.0001633, "MEAN_MOTION_DOT": 1.287e-05, "MEAN_MOTION_DDOT": 0}, "tle": {"line1": "1 33321U 08041B   25354.21247348  .00001287  00000+0  16330-3 0  9998", "line2": "2 33321  97.6395 345.8765 0037997  52.1734 308.2910 14.82840621931886"}}, "geometry": {"type": "Point", "coordinates": [-11.751102673661315, -15.389492448066182]}}, {"type": "Feature", "properties": {"norad_id": 33331, "name": "GEOEYE 1", "group": "resource", "lat": -8.083069038373763, "lon": -115.49990516597086, "alt_km": 681.1045114896033, "timestamp": "2025-12-20T11:30:28.027759+00:00", "meta": {"OBJECT_NAME": "GEOEYE 1", "OBJECT_ID": "2008-042A", "EPOCH": "2025-12-20T04:05:36.757248", "MEAN_MOTION": 14.64709473, "ECCENTRICITY": 0.0002811, "INCLINATION": 98.1244, "RA_OF_ASC_NODE": 65.3576, "ARG_OF_PERICENTER": 252.467, "MEAN_ANOMALY": 107.6225, "EPHEMERIS_TYPE": 0, "CLASSIFICATION_TYPE": "U", "NORAD_CAT_ID": 33331, "ELEMENT_SET_NO": 999, "REV_AT_EPOCH": 92394, "BSTAR": 8.2665e-05, "MEAN_MOTION_DOT": 3.93e-06, "MEAN_MOTION_DDOT": 0}, "tle": {"line1": "1 33331U 08042A   25354.17056432  .00000393  00000+0  82665-4 0  9999", "line2": "2 33331  98.1244  65.3576 0002811 252.4670 107.6225 14.64709473923948"}}, "geometry": {"type": "Point", "coordinates": [-115.49990516597086, -8.083069038373763]}}, {"type": "Feature", "properties": {"norad_id": 33396, "name": "THEOS", "group": "resource", "lat": -61.83258930092829, "lon": -144.04808731641822, "alt_km": 832.8689582198376, "timestamp": "2025-12-20T11:30:28.027770+00:00", "meta": {"OBJECT_NAME": "THEOS", "OBJECT_ID": "2008-049A", "EPOCH": "2025-12-20T03:36:10.933920", "MEAN_MOTION": 14.20098382, "ECCENTRICITY": 0.0001164, "INCLINATION": 98.5863, "RA_OF_ASC_NODE": 52.0216, "ARG_OF_PERICENTER": 96.7502, "MEAN_ANOMALY": 263.3807, "EPHEMERIS_TYPE": 0, "CLASSIFICATION_TYPE": "U", "NORAD_CAT_ID": 33396, "ELEMENT_SET_NO": 999, "REV_AT_EPOCH": 89255, "BSTAR": 0.00013323, "MEAN_MOTION_DOT": 2.41e-06, "MEAN_MOTION_DDOT": 0}, "tle": {"line1": "1 33396U 08049A   25354.15012655  .00000241  00000+0  13323-3 0  9990", "line2": "2 33396  98.5863  52.0216 0001164  96.7502 263.3807 14.20098382892557"}}, "geometry": {"type": "Point", "coordinates": [-144.04808731641822, -61.83258930092829]}}, {"type": "Feature", "properties": {"norad_id": 33412, "name": "COSMO-SKYMED 3", "group": "resource", "lat": -3.3976673881435797, "lon": 24.532303169204823, "alt_km": 544.4172003497197, "timestamp": "2025-12-20T11:30:28.027780+00:00", "meta": {"OBJECT_NAME": "COSMO-SKYMED 3", "OBJECT_ID": "2008-054A", "EPOCH": "2025-12-20T04:18:57.981600", "MEAN_MOTION": 15.05418996, "ECCENTRICITY": 0.0016849, "INCLINATION": 97.8466, "RA_OF_ASC_NODE": 204.6968, "ARG_OF_PERICENTER": 146.9595, "MEAN_ANOMALY": 213.2687, "EPHEMERIS_TYPE": 0, "CLASSIFICATION_TYPE": "U", "NORAD_CAT_ID": 33412, "ELEMENT_SET_NO": 999, "REV_AT_EPOCH": 92999, "BSTAR": 0.0001744, "MEAN_MOTION_DOT": 2.444e-05, "MEAN_MOTION_DDOT": 0}, "tle": {"line1": "1 33412U 08054A   25354.17983775  .00002444  00000+0  17440-3 0  9998", "line2": "2 33412  97.8466 204.6968 0016849 146.9595 213.2687 15.05418996929992"}}, "geometry": {"type": "Point", "coordinates": [24.532303169204823, -3.3976673881435797]}}, {"type": "Feature", "properties": {"norad_id": 33446, "name": "YAOGAN-4", "group": "resource", "lat": -71.2078875236502, "lon": 80.3563712471404, "alt_km": 621.4066369315306, "timestamp": "2025-12-20T11:30:28.027790+00:00", "meta": {"OBJECT_NAME": "YAOGAN-4", "OBJECT_ID": "2008-061A", "EPOCH": "2025-12-20T02:16:16.821696", "MEAN_MOTION": 14.82701971, "ECCENTRICITY": 0.0013132, "INCLINATION": 97.9192, "RA_OF_ASC_NODE": 284.1219, "ARG_OF_PERICENTER": 297.4336, "MEAN_ANOMALY": 62.5541, "EPHEMERIS_TYPE": 0, "CLASSIFICATION_TYPE": "U", "NORAD_CAT_ID": 33446, "ELEMENT_SET_NO": 999, "REV_AT_EPOCH": 91912, "BSTAR": 0.0001179, "MEAN_MOTION_DOT": 8.99e-06, "MEAN_MOTION_DDOT": 0}, "tle": {"line1": "1 33446U 08061A   25354.09463914  .00000899  00000+0  11790-3 0  9996", "line2": "2 33446  97.9192 284.1219 0013132 297.4336  62.5541 14.82701971919125"}}, "geometry": {"type": "Point", "coordinates": [80.3563712471404, -71.2078875236502]}}]}